IRIDIUM 159             
1 43578U 18061K   25156.59576922  .00000021  00000+0  59997-6 0  9994
2 43578  86.3996 214.0396 0002104  94.9869 265.1567 14.34217278359409
IRIDIUM 180             
1 43922U 19002A   25156.45572859 -.00000003  00000+0 -81653-5 0  9998
2 43922  86.3981 151.0809 0002208  91.2995 268.8453 14.34217571334997
IRIDIUM 176             
1 43923U 19002B   25156.41398661  .00000426  00000+0  63626-4 0  9998
2 43923  86.6102 151.0927 0002959 100.3418 259.8132 14.72257029343811
IRIDIUM 168             
1 43924U 19002C   25156.44938526  .00000049  00000+0  10465-4 0  9996
2 43924  86.3977 151.1501 0002344  88.7552 271.3912 14.34217942334974
IRIDIUM 173             
1 43925U 19002D   25156.43670089 -.00000017  00000+0 -13253-4 0  9998
2 43925  86.3979 151.0599 0002305  93.1263 267.0197 14.34217412334956
IRIDIUM 169             
1 43926U 19002E   25156.53819036  .00000326  00000+0  99942-4 0  9997
2 43926  86.4253 182.5956 0003759  99.7664 260.3959 14.38607950336071
IRIDIUM 172             
1 43927U 19002F   25156.43035558  .00000000  00000+0 -69833-5 0  9993
2 43927  86.3980 151.0692 0001989  94.7555 265.3868 14.34217325334962
IRIDIUM 175             
1 43928U 19002G   25156.34099710  .00000679  00000+0  10364-3 0  9998
2 43928  86.1493 104.3128 0003289  75.9547 284.2035 14.72245789343796
